{
    "links": {
        "self": "http://www.neowsapp.com/rest/v1/neo/3788083?api_key=iIulBulltgU6a56xZRHN4H3l9WmuAYTsLGpBGhQ2"
    },
    "id": "3788083",
    "neo_reference_id": "3788083",
    "name": "(2017 UW7)",
    "designation": "2017 UW7",
    "nasa_jpl_url": "http://ssd.jpl.nasa.gov/sbdb.cgi?sstr=3788083",
    "absolute_magnitude_h": 27.6,
    "estimated_diameter": {
        "kilometers": {
            "estimated_diameter_min": 0.0080270317,
            "estimated_diameter_max": 0.0179489885
        },
        "meters": {
            "estimated_diameter_min": 8.0270316728,
            "estimated_diameter_max": 17.948988478
        },
        "miles": {
            "estimated_diameter_min": 0.0049877647,
            "estimated_diameter_max": 0.0111529809
        },
        "feet": {
            "estimated_diameter_min": 26.3354065935,
            "estimated_diameter_max": 58.8877593581
        }
    },
    "is_potentially_hazardous_asteroid": false,
    "close_approach_data": [
        {
            "close_approach_date": "2017-10-26",
            "close_approach_date_full": "2017-Oct-26 05:54",
            "epoch_date_close_approach": 1508997240000,
            "relative_velocity": {
                "kilometers_per_second": "12.0322495588",
                "kilometers_per_hour": "43316.0984117923",
                "miles_per_hour": "26914.9390381495"
            },
            "miss_distance": {
                "astronomical": "0.0127225904",
                "lunar": "4.9490876656",
                "kilometers": "1903272.424722448",
                "miles": "1182638.6450398624"
            },
            "orbiting_body": "Earth"
        }
    ],
    "orbital_data": {
        "orbit_id": "3",
        "orbit_determination_date": "2019-07-10 05:35:58",
        "first_observation_date": "2017-10-27",
        "last_observation_date": "2017-10-28",
        "data_arc_in_days": 1,
        "observations_used": 24,
        "orbit_uncertainty": "7",
        "minimum_orbit_intersection": ".0126288",
        "jupiter_tisserand_invariant": "3.128",
        "epoch_osculation": "2459000.5",
        "eccentricity": ".6060632070317894",
        "semi_major_axis": "2.532228960668399",
        "inclination": "14.86152826873587",
        "ascending_node_longitude": "33.09855678908342",
        "orbital_period": "1471.813845354004",
        "perihelion_distance": ".9975381558269343",
        "perihelion_argument": "347.2566735078245",
        "aphelion_distance": "4.066919765509864",
        "perihelion_time": "2459514.400833161919",
        "mean_anomaly": "234.3018347583262",
        "mean_motion": ".2445961499386575",
        "equinox": "J2000",
        "orbit_class": {
            "orbit_class_type": "APO",
            "orbit_class_description": "Near-Earth asteroid orbits which cross the Earth’s orbit similar to that of 1862 Apollo",
            "orbit_class_range": "a (semi-major axis) > 1.0 AU; q (perihelion) < 1.017 AU"
        }
    },
    "is_sentry_object": false
}